NORAD_CAT_ID,OBJECT_NAME,OBJECT_TYPE,EPOCH,MEAN_MOTION,ECCENTRICITY,INCLINATION,RA_OF_ASC_NODE,ARG_OF_PERICENTER,MEAN_ANOMALY,BSTAR,MEAN_MOTION_DOT,MEAN_MOTION_DDOT,TLE_LINE0,TLE_LINE1,TLE_LINE2,SEMIMAJOR_AXIS,PERIOD,APOGEE,PERIGEE,DECAYED
55319.0,STARLINK-5196,PAYLOAD,2023-12-13 05:11:01,14.98349921,0.0002646,69.9997,265.5541,260.7136,99.3724,0.00012122,1.354e-05,0.0,0 STARLINK-5196,1 55319U 23010BC  23347.21598437  .00001354  00000-0  12122-3 0  9991,2 55319  69.9997 265.5541 0002646 260.7136  99.3724 14.98349921 52196,6950.131,96.106,573.835,570.157,0.0
55319.0,STARLINK-5196,PAYLOAD,2023-12-13 19:36:13,14.98341394,0.0002518,70.0014,264.0407,245.7876,114.302,-7.9393e-05,-1.04e-05,0.0,0 STARLINK-5196,1 55319U 23010BC  23347.81682870 -.00001040  00000-0 -79393-4 0  9990,2 55319  70.0014 264.0407 0002518 245.7876 114.3020 14.98341394 51097,6950.158,96.106,573.773,570.273,0.0
55319.0,STARLINK-5196,PAYLOAD,2023-12-13 21:12:22,14.98342069,0.0002484,70.001,263.8732,245.505,114.585,-8.9172e-05,-1.157e-05,0.0,0 STARLINK-5196,1 55319U 23010BC  23347.88358808 -.00001157  00000-0 -89172-4 0  9993,2 55319  70.0010 263.8732 0002484 245.5050 114.5850 14.98342069 52291,6950.156,96.106,573.747,570.294,0.0
55319.0,STARLINK-5196,PAYLOAD,2023-12-14 03:36:54,14.98341951,0.000288,69.9993,263.1979,259.208,100.8755,-0.00012075,-1.534e-05,0.0,0 STARLINK-5196,1 55319U 23010BC  23348.15062674 -.00001534  00000-0 -12075-3 0  9993,2 55319  69.9993 263.1979 0002880 259.2080 100.8755 14.98341951 52335,6950.156,96.106,574.023,570.019,0.0
55319.0,STARLINK-5196,PAYLOAD,2023-12-14 21:14:22,14.9833842,0.0002675,70.0,261.3459,257.3188,102.7672,-0.00010717,-1.372e-05,0.0,0 STARLINK-5196,1 55319U 23010BC  23348.88498370 -.00001372  00000-0 -10717-3 0  9990,2 55319  70.0000 261.3459 0002675 257.3188 102.7672 14.98338420 51256,6950.167,96.106,573.891,570.173,0.0
55319.0,STARLINK-5196,PAYLOAD,2023-12-15 03:38:54,14.9832842,0.0002704,70.0003,260.6729,256.0187,104.0671,5.5213e-05,5.66e-06,0.0,0 STARLINK-5196,1 55319U 23010BC  23349.15202434  .00000566  00000-0  55213-4 0  9998,2 55319  70.0003 260.6729 0002704 256.0187 104.0671 14.98328420 52488,6950.198,96.107,573.942,570.183,0.0
55319.0,STARLINK-5196,PAYLOAD,2023-12-15 19:40:15,14.98324878,0.00025,70.0011,258.9914,238.5071,121.5844,-4.7688e-05,-6.62e-06,0.0,0 STARLINK-5196,1 55319U 23010BC  23349.81962771 -.00000662  00000-0 -47688-4 0  9994,2 55319  70.0011 258.9914 0002500 238.5071 121.5844 14.98324878 51392,6950.209,96.107,573.811,570.336,0.0
55319.0,STARLINK-5196,PAYLOAD,2023-12-15 22:52:32,14.98322264,0.0002502,70.0009,258.6537,225.4588,134.6367,-6.3854e-05,-8.55e-06,0.0,0 STARLINK-5196,1 55319U 23010BC  23349.95314947 -.00000855  00000-0 -63854-4 0  9992,2 55319  70.0009 258.6537 0002502 225.4588 134.6367 14.98322264 52604,6950.217,96.107,573.821,570.343,0.0
55319.0,STARLINK-5196,PAYLOAD,2023-12-16 03:40:56,14.98321941,0.000245,70.0006,258.1489,236.396,123.6965,-7.8409e-05,-1.028e-05,0.0,0 STARLINK-5196,1 55319U 23010BC  23350.15343140 -.00001028  00000-0 -78409-4 0  9998,2 55319  70.0006 258.1489 0002450 236.3960 123.6965 14.98321941 52635,6950.218,96.108,573.786,570.38,0.0
55319.0,STARLINK-5196,PAYLOAD,2023-12-16 19:42:16,14.98331037,0.0002895,69.999,256.4629,269.4522,90.6305,5.0777e-05,5.13e-06,0.0,0 STARLINK-5196,1 55319U 23010BC  23350.82102298  .00000513  00000-0  50777-4 0  9993,2 55319  69.9990 256.4629 0002895 269.4522  90.6305 14.98331037 51542,6950.19,96.107,574.067,570.043,0.0
55319.0,STARLINK-5196,PAYLOAD,2023-12-16 21:18:24,14.98331168,0.0002902,69.999,256.2944,269.3968,90.6859,5.1406e-05,5.2e-06,0.0,0 STARLINK-5196,1 55319U 23010BC  23350.88778278  .00000520  00000-0  51406-4 0  9994,2 55319  69.9990 256.2944 0002902 269.3968  90.6859 14.98331168 52744,6950.189,96.107,574.071,570.037,0.0
55319.0,STARLINK-5196,PAYLOAD,2023-12-17 03:42:56,14.98335091,0.0002578,69.9998,255.6227,258.1382,101.9488,4.8449e-05,4.85e-06,0.0,0 STARLINK-5196,1 55319U 23010BC  23351.15481956  .00000485  00000-0  48449-4 0  9992,2 55319  69.9998 255.6227 0002578 258.1382 101.9488 14.98335091 52781,6950.177,96.107,573.834,570.25,0.0
55319.0,STARLINK-5196,PAYLOAD,2023-12-17 19:44:17,14.98331202,0.0002602,69.9997,253.9389,258.1346,101.9521,0.000103,1.136e-05,0.0,0 STARLINK-5196,1 55319U 23010BC  23351.82241922  .00001136  00000-0  10300-3 0  9991,2 55319  69.9997 253.9389 0002602 258.1346 101.9521 14.98331202 51695,6950.189,96.107,573.863,570.246,0.0
55319.0,STARLINK-5196,PAYLOAD,2023-12-17 21:20:25,14.9833129,0.0002604,69.9997,253.7707,258.198,101.8887,0.00010178,1.122e-05,0.0,0 STARLINK-5196,1 55319U 23010BC  23351.88917916  .00001122  00000-0  10178-3 0  9998,2 55319  69.9997 253.7707 0002604 258.1980 101.8887 14.98331290 52897,6950.189,96.107,573.864,570.244,0.0
55319.0,STARLINK-5196,PAYLOAD,2023-12-18 03:44:56,14.98337185,0.0002515,69.9999,253.0985,255.6821,104.4059,0.00016317,1.855e-05,0.0,0 STARLINK-5196,1 55319U 23010BC  23352.15621284  .00001855  00000-0  16317-3 0  9993,2 55319  69.9999 253.0985 0002515 255.6821 104.4059 14.98337185 51749,6950.171,96.107,573.784,570.288,0.0
55319.0,STARLINK-5196,PAYLOAD,2023-12-18 19:46:18,14.98327222,0.0002293,70.0022,251.419,231.239,128.8564,-6.5629e-05,-8.76e-06,0.0,0 STARLINK-5196,1 55319U 23010BC  23352.82382547 -.00000876  00000-0 -65629-4 0  9998,2 55319  70.0022 251.4190 0002293 231.2390 128.8564 14.98327222 51846,6950.201,96.107,573.66,570.473,0.0
55319.0,STARLINK-5196,PAYLOAD,2023-12-18 21:22:26,14.98327345,0.0002269,70.0019,251.2506,232.6179,127.4774,-6.7729e-05,-9.01e-06,0.0,0 STARLINK-5196,1 55319U 23010BC  23352.89058617 -.00000901  00000-0 -67729-4 0  9995,2 55319  70.0019 251.2506 0002269 232.6179 127.4774 14.98327345 53042,6950.201,96.107,573.643,570.489,0.0
55319.0,STARLINK-5196,PAYLOAD,2023-12-19 03:46:59,14.98321656,0.0002032,70.0013,250.5749,239.2542,120.8417,-0.00012546,-1.589e-05,0.0,0 STARLINK-5196,1 55319U 23010BC  23353.15763135 -.00001589  00000-0 -12546-3 0  9992,2 55319  70.0013 250.5749 0002032 239.2542 120.8417 14.98321656 51893,6950.219,96.108,573.496,570.671,0.0
55319.0,STARLINK-5196,PAYLOAD,2023-12-19 19:48:19,14.98333433,0.0002634,69.9991,248.8903,259.3707,100.7155,-9.1199e-05,-1.181e-05,0.0,0 STARLINK-5196,1 55319U 23010BC  23353.82522253 -.00001181  00000-0 -91199-4 0  9990,2 55319  69.9991 248.8903 0002634 259.3707 100.7155 14.98333433 51994,6950.182,96.107,573.878,570.217,0.0
55319.0,STARLINK-5196,PAYLOAD,2023-12-20 02:12:51,14.98334261,0.000257,69.9993,248.2172,258.6671,101.42,-5.9595e-05,-8.04e-06,0.0,0 STARLINK-5196,1 55319U 23010BC  23354.09226068 -.00000804  00000-0 -59595-4 0  9990,2 55319  69.9993 248.2172 0002570 258.6671 101.4200 14.98334261 53226,6950.18,96.107,573.831,570.259,0.0
55319.0,STARLINK-5196,PAYLOAD,2023-12-20 19:50:19,14.98328414,0.0002561,69.999,246.3641,258.8435,101.2436,9.8924e-05,1.088e-05,0.0,0 STARLINK-5196,1 55319U 23010BC  23354.82661944  .00001088  00000-0  98924-4 0  9999,2 55319  69.9990 246.3641 0002561 258.8435 101.2436 14.98328414 52145,6950.198,96.107,573.843,570.283,0.0
55319.0,STARLINK-5196,PAYLOAD,2023-12-20 21:26:27,14.98328942,0.0002559,69.999,246.1958,259.2117,100.8754,0.00010817,1.198e-05,0.0,0 STARLINK-5196,1 55319U 23010BC  23354.89337893  .00001198  00000-0  10817-3 0  9995,2 55319  69.9990 246.1958 0002559 259.2117 100.8754 14.98328942 53340,6950.196,96.107,573.84,570.283,0.0
55319.0,STARLINK-5196,PAYLOAD,2023-12-21 02:14:51,14.98331986,0.0002411,69.9995,245.6914,250.6589,109.4309,0.00014442,1.631e-05,0.0,0 STARLINK-5196,1 55319U 23010BC  23355.09365548  .00001631  00000-0  14442-3 0  9996,2 55319  69.9995 245.6914 0002411 250.6589 109.4309 14.98331986 53372,6950.187,96.107,573.727,570.376,0.0
55319.0,STARLINK-5196,PAYLOAD,2023-12-21 21:28:29,14.98314272,0.0002802,69.9996,243.6713,269.2319,90.8519,1.2574e-05,5.7e-07,0.0,0 STARLINK-5196,1 55319U 23010BC  23355.89479101  .00000057  00000-0  12574-4 0  9991,2 55319  69.9996 243.6713 0002802 269.2319  90.8519 14.98314272 53497,6950.242,96.108,574.054,570.159,0.0
55319.0,STARLINK-5196,PAYLOAD,2023-12-22 02:16:53,14.98326762,0.0002637,69.9988,243.166,258.8684,101.2179,-3.9278e-05,-5.62e-06,0.0,0 STARLINK-5196,1 55319U 23010BC  23356.09506495 -.00000562  00000-0 -39278-4 0  9994,2 55319  69.9988 243.1660 0002637 258.8684 101.2179 14.98326762 52337,6950.203,96.107,573.901,570.235,0.0
55319.0,STARLINK-5196,PAYLOAD,2023-12-22 21:30:29,14.98334019,0.0002443,69.9997,241.1473,241.1659,118.9255,-1.2741e-05,-2.45e-06,0.0,0 STARLINK-5196,1 55319U 23010BC  23356.89617851 -.00000245  00000-0 -12741-4 0  9995,2 55319  69.9997 241.1473 0002443 241.1659 118.9255 14.98334019 53648,6950.18,96.107,573.743,570.348,0.0
55319.0,STARLINK-5196,PAYLOAD,2023-12-23 02:18:54,14.98332861,0.0002405,69.9996,240.6419,256.2035,103.8857,3.7794e-05,3.58e-06,0.0,0 STARLINK-5196,1 55319U 23010BC  23357.09645865  .00000358  00000-0  37794-4 0  9992,2 55319  69.9996 240.6419 0002405 256.2035 103.8857 14.98332861 52489,6950.184,96.107,573.721,570.378,0.0
55319.0,STARLINK-5196,PAYLOAD,2023-12-23 15:07:58,14.98337808,0.0002099,70.0,239.2968,241.6649,118.4298,-7.2633e-05,-9.6e-06,0.0,0 STARLINK-5196,1 55319U 23010BC  23357.63053990 -.00000960  00000-0 -72633-4 0  9996,2 55319  70.0000 239.2968 0002099 241.6649 118.4298 14.98337808 53757,6950.169,96.106,573.493,570.575,0.0
55319.0,STARLINK-5196,PAYLOAD,2023-12-23 21:32:31,14.9832642,0.0002418,69.9994,238.6224,247.5954,112.4949,5.0894e-05,5.14e-06,0.0,0 STARLINK-5196,1 55319U 23010BC  23357.89758149  .00000514  00000-0  50894-4 0  9990,2 55319  69.9994 238.6224 0002418 247.5954 112.4949 14.98326420 53792,6950.204,96.107,573.75,570.388,0.0
55319.0,STARLINK-5196,PAYLOAD,2023-12-24 02:20:55,14.98324863,0.0002246,69.9997,238.117,249.1678,110.9241,4.3931e-05,4.31e-06,0.0,0 STARLINK-5196,1 55319U 23010BC  23358.09786347  .00000431  00000-0  43931-4 0  9996,2 55319  69.9997 238.1170 0002246 249.1678 110.9241 14.98324863 52639,6950.209,96.107,573.635,570.513,0.0
